{
  "links" : {
    "next" : "https://api.nasa.gov/neo/rest/v1/feed?start_date=2012-06-23&end_date=2012-06-23&detailed=true&api_key=t0TVs3DtDT2H8Oy2Zy8m2eVrNsAVKAexjcZXUckd",
    "prev" : "https://api.nasa.gov/neo/rest/v1/feed?start_date=2012-06-21&end_date=2012-06-21&detailed=true&api_key=t0TVs3DtDT2H8Oy2Zy8m2eVrNsAVKAexjcZXUckd",
    "self" : "https://api.nasa.gov/neo/rest/v1/feed?start_date=2012-06-22&end_date=2012-06-22&detailed=true&api_key=t0TVs3DtDT2H8Oy2Zy8m2eVrNsAVKAexjcZXUckd"
  },
  "element_count" : 3,
  "near_earth_objects" : {
    "2012-06-22" : [ {
      "links" : {
        "self" : "https://api.nasa.gov/neo/rest/v1/neo/3605840?api_key=t0TVs3DtDT2H8Oy2Zy8m2eVrNsAVKAexjcZXUckd"
      },
      "neo_reference_id" : "3605840",
      "name" : "(2012 MW1)",
      "nasa_jpl_url" : "http://ssd.jpl.nasa.gov/sbdb.cgi?sstr=3605840",
      "absolute_magnitude_h" : 20.7,
      "estimated_diameter" : {
        "kilometers" : {
          "estimated_diameter_min" : 0.1925550782,
          "estimated_diameter_max" : 0.4305662442
        },
        "meters" : {
          "estimated_diameter_min" : 192.5550781879,
          "estimated_diameter_max" : 430.566244241
        },
        "miles" : {
          "estimated_diameter_min" : 0.1196481415,
          "estimated_diameter_max" : 0.2675413778
        },
        "feet" : {
          "estimated_diameter_min" : 631.7424027221,
          "estimated_diameter_max" : 1412.6189567557
        }
      },
      "is_potentially_hazardous_asteroid" : false,
      "close_approach_data" : [ {
        "close_approach_date" : "2012-06-22",
        "epoch_date_close_approach" : 1340348400000,
        "relative_velocity" : {
          "kilometers_per_second" : "22.477289192",
          "kilometers_per_hour" : "80918.2410913256",
          "miles_per_hour" : "50279.4481936629"
        },
        "miss_distance" : {
          "astronomical" : "0.2017123664",
          "lunar" : "78.4661102295",
          "kilometers" : "30175742",
          "miles" : "18750336"
        },
        "orbiting_body" : "Earth"
      } ],
      "orbital_data" : {
        "orbit_id" : "13",
        "orbit_determination_date" : "2017-04-06 08:49:32",
        "orbit_uncertainty" : "7",
        "minimum_orbit_intersection" : ".119853",
        "jupiter_tisserand_invariant" : "3.956",
        "epoch_osculation" : "2458000.5",
        "eccentricity" : ".3967430196997319",
        "semi_major_axis" : "1.669687348380646",
        "inclination" : "36.16988317976124",
        "ascending_node_longitude" : "89.23503825567855",
        "orbital_period" : "788.0452606527592",
        "perihelion_distance" : "1.00725054782967",
        "perihelion_argument" : "124.7404950999912",
        "aphelion_distance" : "2.332124148931622",
        "perihelion_time" : "2457633.124332214798",
        "mean_anomaly" : "167.8269599554751",
        "mean_motion" : ".4568265529594103",
        "equinox" : "J2000"
      }
    }, {
      "links" : {
        "self" : "https://api.nasa.gov/neo/rest/v1/neo/3605597?api_key=t0TVs3DtDT2H8Oy2Zy8m2eVrNsAVKAexjcZXUckd"
      },
      "neo_reference_id" : "3605597",
      "name" : "(2012 LG4)",
      "nasa_jpl_url" : "http://ssd.jpl.nasa.gov/sbdb.cgi?sstr=3605597",
      "absolute_magnitude_h" : 23.6,
      "estimated_diameter" : {
        "kilometers" : {
          "estimated_diameter_min" : 0.0506471459,
          "estimated_diameter_max" : 0.1132504611
        },
        "meters" : {
          "estimated_diameter_min" : 50.6471458835,
          "estimated_diameter_max" : 113.2504610618
        },
        "miles" : {
          "estimated_diameter_min" : 0.0314706677,
          "estimated_diameter_max" : 0.0703705522
        },
        "feet" : {
          "estimated_diameter_min" : 166.1651821003,
          "estimated_diameter_max" : 371.5566426699
        }
      },
      "is_potentially_hazardous_asteroid" : false,
      "close_approach_data" : [ {
        "close_approach_date" : "2012-06-22",
        "epoch_date_close_approach" : 1340348400000,
        "relative_velocity" : {
          "kilometers_per_second" : "10.8608139096",
          "kilometers_per_hour" : "39098.9300745517",
          "miles_per_hour" : "24294.5546343791"
        },
        "miss_distance" : {
          "astronomical" : "0.0534201583",
          "lunar" : "20.7804412842",
          "kilometers" : "7991542.5",
          "miles" : "4965714"
        },
        "orbiting_body" : "Earth"
      } ],
      "orbital_data" : {
        "orbit_id" : "14",
        "orbit_determination_date" : "2017-04-06 08:49:36",
        "orbit_uncertainty" : "7",
        "minimum_orbit_intersection" : ".0102789",
        "jupiter_tisserand_invariant" : "5.462",
        "epoch_osculation" : "2458000.5",
        "eccentricity" : ".3101736217556343",
        "semi_major_axis" : "1.130585920678959",
        "inclination" : "14.16341055253503",
        "ascending_node_longitude" : "262.6498660478058",
        "orbital_period" : "439.0902423400931",
        "perihelion_distance" : ".7799079909560382",
        "perihelion_argument" : "100.5027039928739",
        "aphelion_distance" : "1.481263850401881",
        "perihelion_time" : "2457928.614571515136",
        "mean_anomaly" : "58.93721098567916",
        "mean_motion" : ".8198770213644727",
        "equinox" : "J2000"
      }
    }, {
      "links" : {
        "self" : "https://api.nasa.gov/neo/rest/v1/neo/3656930?api_key=t0TVs3DtDT2H8Oy2Zy8m2eVrNsAVKAexjcZXUckd"
      },
      "neo_reference_id" : "3656930",
      "name" : "(2014 BK25)",
      "nasa_jpl_url" : "http://ssd.jpl.nasa.gov/sbdb.cgi?sstr=3656930",
      "absolute_magnitude_h" : 27.5,
      "estimated_diameter" : {
        "kilometers" : {
          "estimated_diameter_min" : 0.008405334,
          "estimated_diameter_max" : 0.0187948982
        },
        "meters" : {
          "estimated_diameter_min" : 8.4053340207,
          "estimated_diameter_max" : 18.7948982439
        },
        "miles" : {
          "estimated_diameter_min" : 0.0052228308,
          "estimated_diameter_max" : 0.0116786047
        },
        "feet" : {
          "estimated_diameter_min" : 27.5765560686,
          "estimated_diameter_max" : 61.6630539546
        }
      },
      "is_potentially_hazardous_asteroid" : false,
      "close_approach_data" : [ {
        "close_approach_date" : "2012-06-22",
        "epoch_date_close_approach" : 1340348400000,
        "relative_velocity" : {
          "kilometers_per_second" : "18.9758810889",
          "kilometers_per_hour" : "68313.1719201106",
          "miles_per_hour" : "42447.1484078043"
        },
        "miss_distance" : {
          "astronomical" : "0.282359989",
          "lunar" : "109.8380355835",
          "kilometers" : "42240452",
          "miles" : "26247000"
        },
        "orbiting_body" : "Earth"
      } ],
      "orbital_data" : {
        "orbit_id" : "6",
        "orbit_determination_date" : "2017-04-06 08:42:45",
        "orbit_uncertainty" : "7",
        "minimum_orbit_intersection" : ".00772205",
        "jupiter_tisserand_invariant" : "4.403",
        "epoch_osculation" : "2458000.5",
        "eccentricity" : ".4446126882343782",
        "semi_major_axis" : "1.509364450903504",
        "inclination" : "7.828843148560988",
        "ascending_node_longitude" : "126.0702631469118",
        "orbital_period" : "677.3132982368361",
        "perihelion_distance" : ".8382818648618909",
        "perihelion_argument" : "62.24516724818318",
        "aphelion_distance" : "2.180447036945117",
        "perihelion_time" : "2458084.170297224568",
        "mean_anomaly" : "315.5282509892311",
        "mean_motion" : ".5315117847783919",
        "equinox" : "J2000"
      }
    } ]
  }
}